NORAD_CAT_ID,OBJECT_NAME,OBJECT_TYPE,EPOCH,MEAN_MOTION,ECCENTRICITY,INCLINATION,RA_OF_ASC_NODE,ARG_OF_PERICENTER,MEAN_ANOMALY,BSTAR,MEAN_MOTION_DOT,MEAN_MOTION_DDOT,TLE_LINE0,TLE_LINE1,TLE_LINE2,SEMIMAJOR_AXIS,PERIOD,APOGEE,PERIGEE,DECAYED
54198.0,STARLINK-5246,PAYLOAD,2024-07-15 06:14:09,15.08838458,0.000125,53.2159,178.377,90.2096,269.9039,8.3223e-05,1.037e-05,0.0,0 STARLINK-5246,1 54198U 22141AT  24197.25983736  .00001037  00000-0  83223-4 0  9996,2 54198  53.2159 178.3770 0001250  90.2096 269.9039 15.08838458 95058,6917.885,95.438,540.615,538.885,0.0
54198.0,STARLINK-5246,PAYLOAD,2024-07-15 15:46:28,15.08844227,0.0001306,53.2166,176.5937,94.7212,265.393,0.00017635,2.52e-05,0.0,0 STARLINK-5246,1 54198U 22141AT  24197.65727101  .00002520  00000-0  17635-3 0  9993,2 54198  53.2166 176.5937 0001306  94.7212 265.3930 15.08844227 95345,6917.867,95.437,540.636,538.829,0.0
54198.0,STARLINK-5246,PAYLOAD,2024-07-15 22:08:01,15.08838775,0.0001678,53.217,175.4052,88.4131,271.7053,5.4098e-05,5.73e-06,0.0,0 STARLINK-5246,1 54198U 22141AT  24197.92223901  .00000573  00000-0  54098-4 0  9993,2 54198  53.2170 175.4052 0001678  88.4131 271.7053 15.08838775 95155,6917.884,95.438,540.91,538.588,0.0
54198.0,STARLINK-5246,PAYLOAD,2024-07-16 04:29:34,15.08833184,0.0001578,53.2171,174.2152,88.5102,271.6071,-3.0018e-05,-7.66e-06,0.0,0 STARLINK-5246,1 54198U 22141AT  24198.18720581 -.00000766  00000-0 -30018-4 0  9990,2 54198  53.2171 174.2152 0001578  88.5102 271.6071 15.08833184 95420,6917.901,95.438,540.858,538.675,0.0
54198.0,STARLINK-5246,PAYLOAD,2024-07-16 07:40:20,15.08841,0.0001425,53.2167,173.6195,86.7483,273.3672,1.3189e-05,-7.8e-07,0.0,0 STARLINK-5246,1 54198U 22141AT  24198.31967924 -.00000078  00000-0  13189-4 0  9994,2 54198  53.2167 173.6195 0001425  86.7483 273.3672 15.08841000 95442,6917.877,95.437,540.728,538.757,0.0
54198.0,STARLINK-5246,PAYLOAD,2024-07-17 04:20:20,15.08844757,0.0001299,53.2159,169.7517,96.0958,264.0182,3.6213e-05,2.89e-06,0.0,0 STARLINK-5246,1 54198U 22141AT  24199.18079439  .00000289  00000-0  36213-4 0  9991,2 54198  53.2159 169.7517 0001299  96.0958 264.0182 15.08844757 95341,6917.866,95.437,540.629,538.832,0.0
54198.0,STARLINK-5246,PAYLOAD,2024-07-17 15:28:01,15.08857179,0.0001331,53.2164,167.6685,110.2717,249.8418,0.0001056,1.394e-05,0.0,0 STARLINK-5246,1 54198U 22141AT  24199.64446195  .00001394  00000-0  10560-3 0  9993,2 54198  53.2164 167.6685 0001331 110.2717 249.8418 15.08857179 95647,6917.828,95.436,540.614,538.772,0.0
54198.0,STARLINK-5246,PAYLOAD,2024-07-18 04:11:08,15.0883365,0.0001373,53.216,165.2911,97.6697,262.4451,2.6624e-06,-2.46e-06,0.0,0 STARLINK-5246,1 54198U 22141AT  24200.17440093 -.00000246  00000-0  26624-5 0  9991,2 54198  53.2160 165.2911 0001373  97.6697 262.4451 15.08833650 95725,6917.9,95.438,540.715,538.815,0.0
54198.0,STARLINK-5246,PAYLOAD,2024-07-18 07:21:54,15.08837744,0.0001398,53.2166,164.696,100.4467,259.6683,2.5809e-05,1.23e-06,0.0,0 STARLINK-5246,1 54198U 22141AT  24200.30687803  .00000123  00000-0  25809-4 0  9994,2 54198  53.2166 164.6960 0001398 100.4467 259.6683 15.08837744 95513,6917.887,95.438,540.719,538.785,0.0
54198.0,STARLINK-5246,PAYLOAD,2024-07-18 15:18:49,15.08844578,0.0001434,53.2174,163.2103,97.8335,262.282,7.1618e-05,8.52e-06,0.0,0 STARLINK-5246,1 54198U 22141AT  24200.63807301  .00000852  00000-0  71618-4 0  9995,2 54198  53.2174 163.2103 0001434  97.8335 262.2820 15.08844578 95796,6917.866,95.437,540.723,538.739,0.0
54198.0,STARLINK-5246,PAYLOAD,2024-07-19 04:01:54,15.08841819,0.0001629,53.2182,160.83,114.7169,245.3993,2.6044e-06,-2.47e-06,0.0,0 STARLINK-5246,1 54198U 22141AT  24201.16799764 -.00000247  00000-0  26044-5 0  9990,2 54198  53.2182 160.8300 0001629 114.7169 245.3993 15.08841819 95874,6917.875,95.437,540.867,538.613,0.0
54198.0,STARLINK-5246,PAYLOAD,2024-07-20 13:25:00,15.08849484,0.0001281,53.2173,154.5904,89.7582,270.3557,0.00018508,2.66e-05,0.0,0 STARLINK-5246,1 54198U 22141AT  24202.55903009  .00002660  00000-0  18508-3 0  9997,2 54198  53.2173 154.5904 0001281  89.7582 270.3557 15.08849484 95856,6917.851,95.437,540.603,538.83,0.0
54198.0,STARLINK-5246,PAYLOAD,2024-07-21 03:43:30,15.08827778,0.0001405,53.2168,151.9155,103.6824,256.4324,5.5923e-05,6.02e-06,0.0,0 STARLINK-5246,1 54198U 22141AT  24203.15521156  .00000602  00000-0  55923-4 0  9990,2 54198  53.2168 151.9155 0001405 103.6824 256.4324 15.08827778 96177,6917.918,95.438,540.755,538.811,0.0
54198.0,STARLINK-5246,PAYLOAD,2024-07-21 06:54:16,15.0882963,0.0001556,53.2164,151.3223,112.8945,247.2211,-4.9959e-05,-1.083e-05,0.0,0 STARLINK-5246,1 54198U 22141AT  24203.28768739 -.00001083  00000-0 -49959-4 0  9992,2 54198  53.2164 151.3223 0001556 112.8945 247.2211 15.08829630 95964,6917.912,95.438,540.854,538.701,0.0
54198.0,STARLINK-5246,PAYLOAD,2024-07-22 03:34:16,15.08838688,0.0001499,53.217,147.4558,112.2064,247.9087,0.00010226,1.34e-05,0.0,0 STARLINK-5246,1 54198U 22141AT  24204.14880616  .00001340  00000-0  10226-3 0  9995,2 54198  53.2170 147.4558 0001499 112.2064 247.9087 15.08838688 96322,6917.884,95.438,540.786,538.712,0.0
54198.0,STARLINK-5246,PAYLOAD,2024-07-22 05:09:39,15.08841458,0.0001299,53.2164,147.1544,94.7543,265.3597,0.00014325,1.993e-05,0.0,0 STARLINK-5246,1 54198U 22141AT  24204.21504528  .00001993  00000-0  14325-3 0  9996,2 54198  53.2164 147.1544 0001299  94.7543 265.3597 15.08841458 96106,6917.876,95.437,540.64,538.842,0.0
54198.0,STARLINK-5246,PAYLOAD,2024-07-23 01:49:39,15.08897559,0.0001543,53.2158,143.2878,116.3179,243.7972,0.0012838,0.00020235,0.0,0 STARLINK-5246,1 54198U 22141AT  24205.07614774  .00020235  00000-0  12838-2 0  9992,2 54198  53.2158 143.2878 0001543 116.3179 243.7972 15.08897559 96463,6917.704,95.434,540.637,538.502,0.0
54198.0,STARLINK-5246,PAYLOAD,2024-07-23 12:57:22,15.08832249,0.0001097,53.2159,141.2062,91.8679,268.2438,-0.00017432,-3.06e-05,0.0,0 STARLINK-5246,1 54198U 22141AT  24205.53984329 -.00003060  00000-0 -17432-3 0  9994,2 54198  53.2159 141.2062 0001097  91.8679 268.2438 15.08832249 96535,6917.904,95.438,540.528,539.01,0.0
54198.0,STARLINK-5246,PAYLOAD,2024-07-24 03:15:51,15.08824502,0.0001458,53.2159,138.5301,89.6122,270.5037,-0.00030665,-5.163e-05,0.0,0 STARLINK-5246,1 54198U 22141AT  24206.13600958 -.00005163  00000-0 -30665-3 0  9993,2 54198  53.2159 138.5301 0001458  89.6122 270.5037 15.08824502 96397,6917.928,95.439,540.801,538.784,0.0
54198.0,STARLINK-5246,PAYLOAD,2024-07-24 19:09:42,15.08842374,0.0001411,53.2158,135.5531,81.2096,278.9056,-1.6733e-05,-5.54e-06,0.0,0 STARLINK-5246,1 54198U 22141AT  24206.79840834 -.00000554  00000-0 -16733-4 0  9994,2 54198  53.2158 135.5531 0001411  81.2096 278.9056 15.08842374 96722,6917.873,95.437,540.714,538.762,0.0
54198.0,STARLINK-5246,PAYLOAD,2024-07-25 04:42:01,15.08856685,0.0001453,53.216,133.7732,86.5966,273.5192,0.001145,0.0001799,0.0,0 STARLINK-5246,1 54198U 22141AT  24207.19585021  .00017990  00000-0  11450-2 0  9992,2 54198  53.2160 133.7732 0001453  86.5966 273.5192 15.08856685 96786,6917.829,95.436,540.7,538.689,0.0
54198.0,STARLINK-5246,PAYLOAD,2024-07-25 22:11:15,15.08852818,0.0002252,53.2159,130.4966,129.8191,230.3,0.00031269,4.694e-05,0.0,0 STARLINK-5246,1 54198U 22141AT  24207.92448597  .00004694  00000-0  31269-3 0  9997,2 54198  53.2159 130.4966 0002252 129.8191 230.3000 15.08852818 96666,6917.841,95.437,541.264,538.148,0.0
54198.0,STARLINK-5246,PAYLOAD,2024-07-26 01:22:01,15.08847846,0.0001464,53.2159,129.898,128.4229,231.6895,0.00024087,3.548e-05,0.0,0 STARLINK-5246,1 54198U 22141AT  24208.05696671  .00003548  00000-0  24087-3 0  9997,2 54198  53.2159 129.8980 0001464 128.4229 231.6895 15.08847846 96914,6917.856,95.437,540.734,538.709,0.0
54198.0,STARLINK-5246,PAYLOAD,2024-07-26 18:51:16,15.08851739,0.0001553,53.2161,126.6351,109.0496,251.0665,0.00044908,6.869e-05,0.0,0 STARLINK-5246,1 54198U 22141AT  24208.78560639  .00006869  00000-0  44908-3 0  9994,2 54198  53.2161 126.6351 0001553 109.0496 251.0665 15.08851739 96797,6917.845,95.437,540.784,538.635,0.0
54198.0,STARLINK-5246,PAYLOAD,2024-07-27 21:52:49,15.08835163,0.0002471,53.2166,121.5788,127.659,232.4626,-0.00010978,-2.035e-05,0.0,0 STARLINK-5246,1 54198U 22141AT  24209.91168722 -.00002035  00000-0 -10978-3 0  9990,2 54198  53.2166 121.5788 0002471 127.6590 232.4626 15.08835163 96963,6917.895,95.438,541.47,538.051,0.0
54198.0,STARLINK-5246,PAYLOAD,2024-07-28 01:03:36,15.08834639,0.0001383,53.2165,120.9882,91.0783,269.0367,0.00011519,1.546e-05,0.0,0 STARLINK-5246,1 54198U 22141AT  24210.04417333  .00001546  00000-0  11519-3 0  9997,2 54198  53.2165 120.9882 0001383  91.0783 269.0367 15.08834639 97213,6917.897,95.438,540.719,538.805,0.0
54198.0,STARLINK-5246,PAYLOAD,2024-07-28 21:43:37,15.08832483,0.0001319,53.2172,117.1225,91.2968,268.8175,2.1242e-05,5e-07,0.0,0 STARLINK-5246,1 54198U 22141AT  24210.90529742  .00000050  00000-0  21242-4 0  9994,2 54198  53.2172 117.1225 0001319  91.2968 268.8175 15.08832483 97114,6917.903,95.438,540.681,538.856,0.0
54198.0,STARLINK-5246,PAYLOAD,2024-07-29 10:26:42,15.08843948,0.0001472,53.2179,114.7442,94.2347,265.8814,0.00040724,6.2e-05,0.0,0 STARLINK-5246,1 54198U 22141AT  24211.43521221  .00006200  00000-0  40724-3 0  9995,2 54198  53.2179 114.7442 0001472  94.2347 265.8814 15.08843948 97428,6917.868,95.437,540.752,538.715,0.0
54198.0,STARLINK-5246,PAYLOAD,2024-07-29 21:34:24,15.08836006,0.0002001,53.2176,112.6648,89.0426,271.0795,0.00022671,3.321e-05,0.0,0 STARLINK-5246,1 54198U 22141AT  24211.89889991  .00003321  00000-0  22671-3 0  9998,2 54198  53.2176 112.6648 0002001  89.0426 271.0795 15.08836006 97265,6917.893,95.438,541.142,538.373,0.0
54198.0,STARLINK-5246,PAYLOAD,2024-07-30 00:45:11,15.08835274,0.0001586,53.218,112.071,100.0895,260.0276,0.00019305,2.785e-05,0.0,0 STARLINK-5246,1 54198U 22141AT  24212.03137912  .00002785  00000-0  19305-3 0  9997,2 54198  53.2180 112.0710 0001586 100.0895 260.0276 15.08835274 97511,6917.895,95.438,540.857,538.663,0.0
